0 INTELSAT 1R (PAS 1R)
1 26608U 00072A   13281.10884785 -.00000292  00000-0  10000-3 0  7780
2 26608 000.0444 357.0233 0000754 023.8653 345.1794 01.00270975 47287
0 INTELSAT 1R (PAS 1R)
1 26608U 00072A   13282.38307410 -.00000296  00000-0  10000-3 0  7791
2 26608 000.0340 341.4370 0001682 096.9750 027.6541 01.00271932 47298
0 INTELSAT 1R (PAS 1R)
1 26608U 00072A   13283.37889672 -.00000299  00000-0  10000-3 0  7801
2 26608 000.0332 342.0014 0002046 120.7344 002.8191 01.00272206 47304
0 INTELSAT 1R (PAS 1R)
1 26608U 00072A   13284.37469235 -.00000302  00000-0  10000-3 0  7817
2 26608 000.0328 342.7647 0002481 137.7199 344.5525 01.00272618 47312
0 INTELSAT 1R (PAS 1R)
1 26608U 00072A   13285.37122106 -.00000305  00000-0  10000-3 0  7825
2 26608 000.0326 343.2038 0002618 143.4444 338.1301 01.00272624 47328
0 INTELSAT 1R (PAS 1R)
1 26608U 00072A   13286.31699874 -.00000307  00000-0  10000-3 0  7834
2 26608 000.0327 341.7031 0000936 101.1601 003.3152 01.00272381 47338
0 INTELSAT 1R (PAS 1R)
1 26608U 00072A   13290.21367705 -.00000305  00000-0  10000-3 0  7842
2 26608 000.0301 343.3838 0003022 358.7190 070.6903 01.00270794 47376
0 INTELSAT 1R (PAS 1R)
1 26608U 00072A   13293.05849700 -.00000299  00000-0  10000-3 0  7850
2 26608 000.0209 320.5816 0002125 130.4340 268.7767 01.00272178 47399
0 INTELSAT 1R (PAS 1R)
1 26608U 00072A   13294.25362639 -.00000297  00000-0  10000-3 0  7863
2 26608 000.0177 315.2942 0001648 133.3562 342.5612 01.00271699 47411
0 INTELSAT 1R (PAS 1R)
1 26608U 00072A   13295.08908841 -.00000295  00000-0  10000-3 0  7875
2 26608 000.0163 314.5711 0001206 119.1406 299.0837 01.00271473 47427
